{"type":"FeatureCollection","name":"ne_50m_admin_0_countries","crs":{"type":"name","properties":{"name":"urn:ogc:def:crs:OGC:1.3:CRS84"}},"features":[{"type":"Feature","properties":{"featurecla":"Admin-0 country","scalerank":3,"LABELRANK":6,"SOVEREIGNT":"Singapore","SOV_A3":"SGP","ADM0_DIF":0,"LEVEL":2,"TYPE":"Sovereign country","TLC":"1","ADMIN":"Singapore","ADM0_A3":"SGP","GEOU_DIF":0,"GEOUNIT":"Singapore","GU_A3":"SGP","SU_DIF":0,"SUBUNIT":"Singapore","SU_A3":"SGP","BRK_DIFF":0,"NAME":"Singapore","NAME_LONG":"Singapore","BRK_A3":"SGP","BRK_NAME":"Singapore","BRK_GROUP":null,"ABBREV":"Sing.","POSTAL":"SG","FORMAL_EN":"Republic of Singapore","FORMAL_FR":null,"NAME_CIAWF":"Singapore","NOTE_ADM0":null,"NOTE_BRK":null,"NAME_SORT":"Singapore","NAME_ALT":null,"MAPCOLOR7":5,"MAPCOLOR8":3,"MAPCOLOR9":7,"MAPCOLOR13":3,"POP_EST":5703569,"POP_RANK":13,"POP_YEAR":2019,"GDP_MD":372062,"GDP_YEAR":2019,"ECONOMY":"6. Developing region","INCOME_GRP":"2. High income: nonOECD","FIPS_10":"SN","ISO_A2":"SG","ISO_A2_EH":"SG","ISO_A3":"SGP","ISO_A3_EH":"SGP","ISO_N3":"702","ISO_N3_EH":"702","UN_A3":"702","WB_A2":"SG","WB_A3":"SGP","WOE_ID":23424948,"WOE_ID_EH":23424948,"WOE_NOTE":"Exact WOE match as country","ADM0_ISO":"SGP","ADM0_DIFF":null,"ADM0_TLC":"SGP","ADM0_A3_US":"SGP","ADM0_A3_FR":"SGP","ADM0_A3_RU":"SGP","ADM0_A3_ES":"SGP","ADM0_A3_CN":"SGP","ADM0_A3_TW":"SGP","ADM0_A3_IN":"SGP","ADM0_A3_NP":"SGP","ADM0_A3_PK":"SGP","ADM0_A3_DE":"SGP","ADM0_A3_GB":"SGP","ADM0_A3_BR":"SGP","ADM0_A3_IL":"SGP","ADM0_A3_PS":"SGP","ADM0_A3_SA":"SGP","ADM0_A3_EG":"SGP","ADM0_A3_MA":"SGP","ADM0_A3_PT":"SGP","ADM0_A3_AR":"SGP","ADM0_A3_JP":"SGP","ADM0_A3_KO":"SGP","ADM0_A3_VN":"SGP","ADM0_A3_TR":"SGP","ADM0_A3_ID":"SGP","ADM0_A3_PL":"SGP","ADM0_A3_GR":"SGP","ADM0_A3_IT":"SGP","ADM0_A3_NL":"SGP","ADM0_A3_SE":"SGP","ADM0_A3_BD":"SGP","ADM0_A3_UA":"SGP","ADM0_A3_UN":-99,"ADM0_A3_WB":-99,"CONTINENT":"Asia","REGION_UN":"Asia","SUBREGION":"South-Eastern Asia","REGION_WB":"East Asia & Pacific","NAME_LEN":9,"LONG_LEN":9,"ABBREV_LEN":5,"TINY":3,"HOMEPART":1,"MIN_ZOOM":0,"MIN_LABEL":4,"MAX_LABEL":9,"LABEL_X":103.816925,"LABEL_Y":1.366587,"NE_ID":1159321247,"WIKIDATAID":"Q334","NAME_AR":"سنغافورة","NAME_BN":"সিঙ্গাপুর","NAME_DE":"Singapur","NAME_EN":"Singapore","NAME_ES":"Singapur","NAME_FA":"سنگاپور","NAME_FR":"Singapour","NAME_EL":"Σιγκαπούρη","NAME_HE":"סינגפור","NAME_HI":"सिंगापुर","NAME_HU":"Szingapúr","NAME_ID":"Singapura","NAME_IT":"Singapore","NAME_JA":"シンガポール","NAME_KO":"싱가포르","NAME_NL":"Singapore","NAME_PL":"Singapur","NAME_PT":"Singapura","NAME_RU":"Сингапур","NAME_SV":"Singapore","NAME_TR":"Singapur","NAME_UK":"Сінгапур","NAME_UR":"سنگاپور","NAME_VI":"Singapore","NAME_ZH":"新加坡","NAME_ZHT":"新加坡","FCLASS_ISO":"Admin-0 country","TLC_DIFF":null,"FCLASS_TLC":"Admin-0 country","FCLASS_US":null,"FCLASS_FR":null,"FCLASS_RU":null,"FCLASS_ES":null,"FCLASS_CN":null,"FCLASS_TW":null,"FCLASS_IN":null,"FCLASS_NP":null,"FCLASS_PK":null,"FCLASS_DE":null,"FCLASS_GB":null,"FCLASS_BR":null,"FCLASS_IL":null,"FCLASS_PS":null,"FCLASS_SA":null,"FCLASS_EG":null,"FCLASS_MA":null,"FCLASS_PT":null,"FCLASS_AR":null,"FCLASS_JP":null,"FCLASS_KO":null,"FCLASS_VN":null,"FCLASS_TR":null,"FCLASS_ID":null,"FCLASS_PL":null,"FCLASS_GR":null,"FCLASS_IT":null,"FCLASS_NL":null,"FCLASS_SE":null,"FCLASS_BD":null,"FCLASS_UA":null},"bbox":[103.650195,1.265381,103.996387,1.44707],"geometry":{"type":"Polygon","coordinates":[[[103.969727,1.331445],[103.819922,1.265381],[103.650195,1.325537],[103.705273,1.423437],[103.817969,1.44707],[103.908984,1.415967],[103.96084,1.392236],[103.996387,1.365234],[103.969727,1.331445]]]}},{"type":"Feature","properties":{"featurecla":"Admin-0 country","scalerank":1,"LABELRANK":5,"SOVEREIGNT":"Mauritius","SOV_A3":"MUS","ADM0_DIF":0,"LEVEL":2,"TYPE":"Sovereign country","TLC":"1","ADMIN":"Mauritius","ADM0_A3":"MUS","GEOU_DIF":0,"GEOUNIT":"Mauritius","GU_A3":"MUS","SU_DIF":0,"SUBUNIT":"Mauritius","SU_A3":"MUS","BRK_DIFF":0,"NAME":"Mauritius","NAME_LONG":"Mauritius","BRK_A3":"MUS","BRK_NAME":"Mauritius","BRK_GROUP":null,"ABBREV":"Mus.","POSTAL":"MU","FORMAL_EN":"Republic of Mauritius","FORMAL_FR":null,"NAME_CIAWF":"Mauritius","NOTE_ADM0":null,"NOTE_BRK":null,"NAME_SORT":"Mauritius","NAME_ALT":null,"MAPCOLOR7":1,"MAPCOLOR8":3,"MAPCOLOR9":5,"MAPCOLOR13":7,"POP_EST":1265711,"POP_RANK":12,"POP_YEAR":2019,"GDP_MD":14048,"GDP_YEAR":2019,"ECONOMY":"6. Developing region","INCOME_GRP":"3. Upper middle income","FIPS_10":"MP","ISO_A2":"MU","ISO_A2_EH":"MU","ISO_A3":"MUS","ISO_A3_EH":"MUS","ISO_N3":"480","ISO_N3_EH":"480","UN_A3":"480","WB_A2":"MU","WB_A3":"MUS","WOE_ID":23424894,"WOE_ID_EH":23424894,"WOE_NOTE":"Exact WOE match as country","ADM0_ISO":"MUS","ADM0_DIFF":null,"ADM0_TLC":"MUS","ADM0_A3_US":"MUS","ADM0_A3_FR":"MUS","ADM0_A3_RU":"MUS","ADM0_A3_ES":"MUS","ADM0_A3_CN":"MUS","ADM0_A3_TW":"MUS","ADM0_A3_IN":"MUS","ADM0_A3_NP":"MUS","ADM0_A3_PK":"MUS","ADM0_A3_DE":"MUS","ADM0_A3_GB":"MUS","ADM0_A3_BR":"MUS","ADM0_A3_IL":"MUS","ADM0_A3_PS":"MUS","ADM0_A3_SA":"MUS","ADM0_A3_EG":"MUS","ADM0_A3_MA":"MUS","ADM0_A3_PT":"MUS","ADM0_A3_AR":"MUS","ADM0_A3_JP":"MUS","ADM0_A3_KO":"MUS","ADM0_A3_VN":"MUS","ADM0_A3_TR":"MUS","ADM0_A3_ID":"MUS","ADM0_A3_PL":"MUS","ADM0_A3_GR":"MUS","ADM0_A3_IT":"MUS","ADM0_A3_NL":"MUS","ADM0_A3_SE":"MUS","ADM0_A3_BD":"MUS","ADM0_A3_UA":"MUS","ADM0_A3_UN":-99,"ADM0_A3_WB":-99,"CONTINENT":"Seven seas (open ocean)","REGION_UN":"Africa","SUBREGION":"Eastern Africa","REGION_WB":"Sub-Saharan Africa","NAME_LEN":9,"LONG_LEN":9,"ABBREV_LEN":4,"TINY":2,"HOMEPART":1,"MIN_ZOOM":0,"MIN_LABEL":4,"MAX_LABEL":9,"LABEL_X":57.565848,"LABEL_Y":-20.299506,"NE_ID":1159321079,"WIKIDATAID":"Q1027","NAME_AR":"موريشيوس","NAME_BN":"মরিশাস","NAME_DE":"Mauritius","NAME_EN":"Mauritius","NAME_ES":"Mauricio","NAME_FA":"موریس","NAME_FR":"Maurice","NAME_EL":"Μαυρίκιος","NAME_HE":"מאוריציוס","NAME_HI":"मॉरिशस","NAME_HU":"Mauritius","NAME_ID":"Mauritius","NAME_IT":"Mauritius","NAME_JA":"モーリシャス","NAME_KO":"모리셔스","NAME_NL":"Mauritius","NAME_PL":"Mauritius","NAME_PT":"Maurícia","NAME_RU":"Маврикий","NAME_SV":"Mauritius","NAME_TR":"Mauritius","NAME_UK":"Маврикій","NAME_UR":"موریشس","NAME_VI":"Mauritius","NAME_ZH":"毛里求斯","NAME_ZHT":"模里西斯","FCLASS_ISO":"Admin-0 country","TLC_DIFF":null,"FCLASS_TLC":"Admin-0 country","FCLASS_US":null,"FCLASS_FR":null,"FCLASS_RU":null,"FCLASS_ES":null,"FCLASS_CN":null,"FCLASS_TW":null,"FCLASS_IN":null,"FCLASS_NP":null,"FCLASS_PK":null,"FCLASS_DE":null,"FCLASS_GB":null,"FCLASS_BR":null,"FCLASS_IL":null,"FCLASS_PS":null,"FCLASS_SA":null,"FCLASS_EG":null,"FCLASS_MA":null,"FCLASS_PT":null,"FCLASS_AR":null,"FCLASS_JP":null,"FCLASS_KO":null,"FCLASS_VN":null,"FCLASS_TR":null,"FCLASS_ID":null,"FCLASS_PL":null,"FCLASS_GR":null,"FCLASS_IT":null,"FCLASS_NL":null,"FCLASS_SE":null,"FCLASS_BD":null,"FCLASS_UA":null},"bbox":[57.317676,-20.513184,57.791992,-19.989941],"geometry":{"type":"Polygon","coordinates":[[[57.65127,-20.484863],[57.524805,-20.513184],[57.383301,-20.503711],[57.32832,-20.45],[57.317676,-20.427637],[57.365137,-20.406445],[57.362109,-20.337598],[57.385742,-20.228613],[57.416016,-20.183789],[57.486426,-20.143945],[57.515039,-20.055957],[57.575781,-19.997168],[57.656543,-19.989941],[57.737207,-20.098438],[57.791992,-20.212598],[57.780664,-20.326953],[57.725,-20.368848],[57.706641,-20.434863],[57.65127,-20.484863]]]}},{"type":"Feature","properties":{"featurecla":"Admin-0 country","scalerank":3,"LABELRANK":5,"SOVEREIGNT":"Malta","SOV_A3":"MLT","ADM0_DIF":0,"LEVEL":2,"TYPE":"Sovereign country","TLC":"1","ADMIN":"Malta","ADM0_A3":"MLT","GEOU_DIF":0,"GEOUNIT":"Malta","GU_A3":"MLT","SU_DIF":0,"SUBUNIT":"Malta","SU_A3":"MLT","BRK_DIFF":0,"NAME":"Malta","NAME_LONG":"Malta","BRK_A3":"MLT","BRK_NAME":"Malta","BRK_GROUP":null,"ABBREV":"Malta","POSTAL":"M","FORMAL_EN":"Republic of Malta","FORMAL_FR":null,"NAME_CIAWF":"Malta","NOTE_ADM0":null,"NOTE_BRK":null,"NAME_SORT":"Malta","NAME_ALT":null,"MAPCOLOR7":1,"MAPCOLOR8":4,"MAPCOLOR9":1,"MAPCOLOR13":8,"POP_EST":502653,"POP_RANK":11,"POP_YEAR":2019,"GDP_MD":14989,"GDP_YEAR":2019,"ECONOMY":"2. Developed region: nonG7","INCOME_GRP":"2. High income: nonOECD","FIPS_10":"MT","ISO_A2":"MT","ISO_A2_EH":"MT","ISO_A3":"MLT","ISO_A3_EH":"MLT","ISO_N3":"470","ISO_N3_EH":"470","UN_A3":"470","WB_A2":"MT","WB_A3":"MLT","WOE_ID":23424897,"WOE_ID_EH":23424897,"WOE_NOTE":"Exact WOE match as country","ADM0_ISO":"MLT","ADM0_DIFF":null,"ADM0_TLC":"MLT","ADM0_A3_US":"MLT","ADM0_A3_FR":"MLT","ADM0_A3_RU":"MLT","ADM0_A3_ES":"MLT","ADM0_A3_CN":"MLT","ADM0_A3_TW":"MLT","ADM0_A3_IN":"MLT","ADM0_A3_NP":"MLT","ADM0_A3_PK":"MLT","ADM0_A3_DE":"MLT","ADM0_A3_GB":"MLT","ADM0_A3_BR":"MLT","ADM0_A3_IL":"MLT","ADM0_A3_PS":"MLT","ADM0_A3_SA":"MLT","ADM0_A3_EG":"MLT","ADM0_A3_MA":"MLT","ADM0_A3_PT":"MLT","ADM0_A3_AR":"MLT","ADM0_A3_JP":"MLT","ADM0_A3_KO":"MLT","ADM0_A3_VN":"MLT","ADM0_A3_TR":"MLT","ADM0_A3_ID":"MLT","ADM0_A3_PL":"MLT","ADM0_A3_GR":"MLT","ADM0_A3_IT":"MLT","ADM0_A3_NL":"MLT","ADM0_A3_SE":"MLT","ADM0_A3_BD":"MLT","ADM0_A3_UA":"MLT","ADM0_A3_UN":-99,"ADM0_A3_WB":-99,"CONTINENT":"Europe","REGION_UN":"Europe","SUBREGION":"Southern Europe","REGION_WB":"Middle East & North Africa","NAME_LEN":5,"LONG_LEN":5,"ABBREV_LEN":5,"TINY":3,"HOMEPART":1,"MIN_ZOOM":0,"MIN_LABEL":4,"MAX_LABEL":9,"LABEL_X":14.433005,"LABEL_Y":35.892886,"NE_ID":1159321065,"WIKIDATAID":"Q233","NAME_AR":"مالطا","NAME_BN":"মাল্টা","NAME_DE":"Malta","NAME_EN":"Malta","NAME_ES":"Malta","NAME_FA":"مالت","NAME_FR":"Malte","NAME_EL":"Μάλτα","NAME_HE":"מלטה","NAME_HI":"माल्टा","NAME_HU":"Málta","NAME_ID":"Malta","NAME_IT":"Malta","NAME_JA":"マルタ","NAME_KO":"몰타","NAME_NL":"Malta","NAME_PL":"Malta","NAME_PT":"Malta","NAME_RU":"Мальта","NAME_SV":"Malta","NAME_TR":"Malta","NAME_UK":"Мальта","NAME_UR":"مالٹا","NAME_VI":"Malta","NAME_ZH":"马耳他","NAME_ZHT":"馬耳他","FCLASS_ISO":"Admin-0 country","TLC_DIFF":null,"FCLASS_TLC":"Admin-0 country","FCLASS_US":null,"FCLASS_FR":null,"FCLASS_RU":null,"FCLASS_ES":null,"FCLASS_CN":null,"FCLASS_TW":null,"FCLASS_IN":null,"FCLASS_NP":null,"FCLASS_PK":null,"FCLASS_DE":null,"FCLASS_GB":null,"FCLASS_BR":null,"FCLASS_IL":null,"FCLASS_PS":null,"FCLASS_SA":null,"FCLASS_EG":null,"FCLASS_MA":null,"FCLASS_PT":null,"FCLASS_AR":null,"FCLASS_JP":null,"FCLASS_KO":null,"FCLASS_VN":null,"FCLASS_TR":null,"FCLASS_ID":null,"FCLASS_PL":null,"FCLASS_GR":null,"FCLASS_IT":null,"FCLASS_NL":null,"FCLASS_SE":null,"FCLASS_BD":null,"FCLASS_UA":null},"bbox":[14.180371,35.820215,14.566211,36.075781],"geometry":{"type":"MultiPolygon","coordinates":[[[[14.566211,35.852734],[14.532715,35.820215],[14.436426,35.82168],[14.352344,35.872266],[14.35127,35.978418],[14.44834,35.957422],[14.537012,35.886279],[14.566211,35.852734]]],[[[14.313477,36.027588],[14.253613,36.012158],[14.194238,36.042236],[14.180371,36.0604],[14.263281,36.075781],[14.303711,36.062305],[14.320898,36.03623],[14.313477,36.027588]]]]}},{"type":"Feature","properties":{"featurecla":"Admin-0 country","scalerank":3,"LABELRANK":4,"SOVEREIGNT":"China","SOV_A3":"CH1","ADM0_DIF":1,"LEVEL":2,"TYPE":"Country","TLC":"1","ADMIN":"Hong Kong S.A.R.","ADM0_A3":"HKG","GEOU_DIF":0,"GEOUNIT":"Hong Kong S.A.R.","GU_A3":"HKG","SU_DIF":0,"SUBUNIT":"Hong Kong S.A.R.","SU_A3":"HKG","BRK_DIFF":0,"NAME":"Hong Kong","NAME_LONG":"Hong Kong","BRK_A3":"HKG","BRK_NAME":"Hong Kong","BRK_GROUP":null,"ABBREV":"H.K.","POSTAL":"HK","FORMAL_EN":"Hong Kong Special Administrative Region, PRC","FORMAL_FR":null,"NAME_CIAWF":"Hong Kong","NOTE_ADM0":"Cn.","NOTE_BRK":"China","NAME_SORT":"Hong Kong SAR, China","NAME_ALT":null,"MAPCOLOR7":4,"MAPCOLOR8":4,"MAPCOLOR9":4,"MAPCOLOR13":3,"POP_EST":7507400,"POP_RANK":13,"POP_YEAR":2019,"GDP_MD":365711,"GDP_YEAR":2019,"ECONOMY":"6. Developing region","INCOME_GRP":"2. High income: nonOECD","FIPS_10":"HK","ISO_A2":"HK","ISO_A2_EH":"HK","ISO_A3":"HKG","ISO_A3_EH":"HKG","ISO_N3":"344","ISO_N3_EH":"344","UN_A3":"344","WB_A2":"HK","WB_A3":"HKG","WOE_ID":24865698,"WOE_ID_EH":24865698,"WOE_NOTE":"Exact WOE match as country","ADM0_ISO":"HKG","ADM0_DIFF":null,"ADM0_TLC":"HKG","ADM0_A3_US":"HKG","ADM0_A3_FR":"HKG","ADM0_A3_RU":"HKG","ADM0_A3_ES":"HKG","ADM0_A3_CN":"HKG","ADM0_A3_TW":"HKG","ADM0_A3_IN":"HKG","ADM0_A3_NP":"HKG","ADM0_A3_PK":"HKG","ADM0_A3_DE":"HKG","ADM0_A3_GB":"HKG","ADM0_A3_BR":"HKG","ADM0_A3_IL":"HKG","ADM0_A3_PS":"HKG","ADM0_A3_SA":"HKG","ADM0_A3_EG":"HKG","ADM0_A3_MA":"HKG","ADM0_A3_PT":"HKG","ADM0_A3_AR":"HKG","ADM0_A3_JP":"HKG","ADM0_A3_KO":"HKG","ADM0_A3_VN":"HKG","ADM0_A3_TR":"HKG","ADM0_A3_ID":"HKG","ADM0_A3_PL":"HKG","ADM0_A3_GR":"HKG","ADM0_A3_IT":"HKG","ADM0_A3_NL":"HKG","ADM0_A3_SE":"HKG","ADM0_A3_BD":"HKG","ADM0_A3_UA":"HKG","ADM0_A3_UN":-99,"ADM0_A3_WB":-99,"CONTINENT":"Asia","REGION_UN":"Asia","SUBREGION":"Eastern Asia","REGION_WB":"East Asia & Pacific","NAME_LEN":9,"LONG_LEN":9,"ABBREV_LEN":4,"TINY":-99,"HOMEPART":-99,"MIN_ZOOM":0,"MIN_LABEL":4,"MAX_LABEL":9,"LABEL_X":114.097769,"LABEL_Y":22.448829,"NE_ID":1159320473,"WIKIDATAID":"Q8646","NAME_AR":"هونغ كونغ","NAME_BN":"হংকং","NAME_DE":"Hongkong","NAME_EN":"Hong Kong","NAME_ES":"Hong Kong","NAME_FA":"هنگ کنگ","NAME_FR":"Hong Kong","NAME_EL":"Χονγκ Κονγκ","NAME_HE":"הונג קונג","NAME_HI":"हांगकांग","NAME_HU":"Hongkong","NAME_ID":"Hong Kong","NAME_IT":"Hong Kong","NAME_JA":"香港","NAME_KO":"홍콩","NAME_NL":"Hongkong","NAME_PL":"Hongkong","NAME_PT":"Hong Kong","NAME_RU":"Гонконг","NAME_SV":"Hongkong","NAME_TR":"Hong Kong","NAME_UK":"Гонконг","NAME_UR":"ہانگ کانگ","NAME_VI":"Hồng Kông","NAME_ZH":"香港","NAME_ZHT":"香港","FCLASS_ISO":"Admin-0 dependency","TLC_DIFF":null,"FCLASS_TLC":"Admin-0 dependency","FCLASS_US":null,"FCLASS_FR":null,"FCLASS_RU":null,"FCLASS_ES":null,"FCLASS_CN":"Admin-1 region","FCLASS_TW":null,"FCLASS_IN":null,"FCLASS_NP":null,"FCLASS_PK":null,"FCLASS_DE":null,"FCLASS_GB":null,"FCLASS_BR":null,"FCLASS_IL":null,"FCLASS_PS":null,"FCLASS_SA":null,"FCLASS_EG":null,"FCLASS_MA":null,"FCLASS_PT":null,"FCLASS_AR":null,"FCLASS_JP":null,"FCLASS_KO":null,"FCLASS_VN":null,"FCLASS_TR":null,"FCLASS_ID":null,"FCLASS_PL":null,"FCLASS_GR":null,"FCLASS_IT":null,"FCLASS_NL":null,"FCLASS_SE":null,"FCLASS_BD":null,"FCLASS_UA":null},"bbox":[113.838867,22.195166,114.335254,22.56499],"geometry":{"type":"MultiPolygon","coordinates":[[[[114.01543,22.511914],[114.018262,22.514453],[114.050391,22.542969],[114.097852,22.55127],[114.122852,22.56499],[114.188184,22.56499],[114.228223,22.553955],[114.266016,22.540967],[114.269629,22.536768],[114.291113,22.499463],[114.28457,22.457617],[114.325195,22.437402],[114.335254,22.39624],[114.290527,22.373779],[114.287891,22.325293],[114.267969,22.295557],[114.139063,22.348438],[114.032813,22.375879],[113.937305,22.36499],[113.902539,22.396094],[113.896484,22.428174],[114.006738,22.484033],[114.01543,22.511914]]],[[[114.232031,22.210547],[114.207227,22.195166],[114.13877,22.268359],[114.134473,22.292236],[114.187402,22.296631],[114.246875,22.263574],[114.243555,22.233545],[114.232031,22.210547]]],[[[113.997754,22.210498],[113.877344,22.210449],[113.851562,22.220459],[113.838867,22.241699],[113.881543,22.280273],[114.043945,22.333398],[114.00332,22.277539],[113.997754,22.210498]]]]}},{"type":"Feature","properties":{"featurecla":"Admin-0 country","scalerank":1,"LABELRANK":5,"SOVEREIGNT":"Barbados","SOV_A3":"BRB","ADM0_DIF":0,"LEVEL":2,"TYPE":"Sovereign country","TLC":"1","ADMIN":"Barbados","ADM0_A3":"BRB","GEOU_DIF":0,"GEOUNIT":"Barbados","GU_A3":"BRB","SU_DIF":0,"SUBUNIT":"Barbados","SU_A3":"BRB","BRK_DIFF":0,"NAME":"Barbados","NAME_LONG":"Barbados","BRK_A3":"BRB","BRK_NAME":"Barbados","BRK_GROUP":null,"ABBREV":"Barb.","POSTAL":"BB","FORMAL_EN":"Barbados","FORMAL_FR":null,"NAME_CIAWF":"Barbados","NOTE_ADM0":null,"NOTE_BRK":null,"NAME_SORT":"Barbados","NAME_ALT":null,"MAPCOLOR7":4,"MAPCOLOR8":1,"MAPCOLOR9":5,"MAPCOLOR13":3,"POP_EST":287025,"POP_RANK":10,"POP_YEAR":2019,"GDP_MD":5209,"GDP_YEAR":2019,"ECONOMY":"6. Developing region","INCOME_GRP":"2. High income: nonOECD","FIPS_10":"BB","ISO_A2":"BB","ISO_A2_EH":"BB","ISO_A3":"BRB","ISO_A3_EH":"BRB","ISO_N3":"052","ISO_N3_EH":"052","UN_A3":"052","WB_A2":"BB","WB_A3":"BRB","WOE_ID":23424754,"WOE_ID_EH":23424754,"WOE_NOTE":"Exact WOE match as country","ADM0_ISO":"BRB","ADM0_DIFF":null,"ADM0_TLC":"BRB","ADM0_A3_US":"BRB","ADM0_A3_FR":"BRB","ADM0_A3_RU":"BRB","ADM0_A3_ES":"BRB","ADM0_A3_CN":"BRB","ADM0_A3_TW":"BRB","ADM0_A3_IN":"BRB","ADM0_A3_NP":"BRB","ADM0_A3_PK":"BRB","ADM0_A3_DE":"BRB","ADM0_A3_GB":"BRB","ADM0_A3_BR":"BRB","ADM0_A3_IL":"BRB","ADM0_A3_PS":"BRB","ADM0_A3_SA":"BRB","ADM0_A3_EG":"BRB","ADM0_A3_MA":"BRB","ADM0_A3_PT":"BRB","ADM0_A3_AR":"URY","ADM0_A3_JP":"BRB","ADM0_A3_KO":"BRB","ADM0_A3_VN":"BRB","ADM0_A3_TR":"BRB","ADM0_A3_ID":"BRB","ADM0_A3_PL":"BRB","ADM0_A3_GR":"BRB","ADM0_A3_IT":"BRB","ADM0_A3_NL":"BRB","ADM0_A3_SE":"BRB","ADM0_A3_BD":"BRB","ADM0_A3_UA":"BRB","ADM0_A3_UN":-99,"ADM0_A3_WB":-99,"CONTINENT":"North America","REGION_UN":"Americas","SUBREGION":"Caribbean","REGION_WB":"Latin America & Caribbean","NAME_LEN":8,"LONG_LEN":8,"ABBREV_LEN":5,"TINY":3,"HOMEPART":1,"MIN_ZOOM":0,"MIN_LABEL":4.5,"MAX_LABEL":9.5,"LABEL_X":-59.568966,"LABEL_Y":13.163709,"NE_ID":1159320449,"WIKIDATAID":"Q244","NAME_AR":"باربادوس","NAME_BN":"বার্বাডোস","NAME_DE":"Barbados","NAME_EN":"Barbados","NAME_ES":"Barbados","NAME_FA":"باربادوس","NAME_FR":"Barbade","NAME_EL":"Μπαρμπάντος","NAME_HE":"ברבדוס","NAME_HI":"बारबाडोस","NAME_HU":"Barbados","NAME_ID":"Barbados","NAME_IT":"Barbados","NAME_JA":"バルバドス","NAME_KO":"바베이도스","NAME_NL":"Barbados","NAME_PL":"Barbados","NAME_PT":"Barbados","NAME_RU":"Барбадос","NAME_SV":"Barbados","NAME_TR":"Barbados","NAME_UK":"Барбадос","NAME_UR":"بارباڈوس","NAME_VI":"Barbados","NAME_ZH":"巴巴多斯","NAME_ZHT":"巴貝多","FCLASS_ISO":"Admin-0 country","TLC_DIFF":null,"FCLASS_TLC":"Admin-0 country","FCLASS_US":null,"FCLASS_FR":null,"FCLASS_RU":null,"FCLASS_ES":null,"FCLASS_CN":null,"FCLASS_TW":null,"FCLASS_IN":null,"FCLASS_NP":null,"FCLASS_PK":null,"FCLASS_DE":null,"FCLASS_GB":null,"FCLASS_BR":null,"FCLASS_IL":null,"FCLASS_PS":null,"FCLASS_SA":null,"FCLASS_EG":null,"FCLASS_MA":null,"FCLASS_PT":null,"FCLASS_AR":null,"FCLASS_JP":null,"FCLASS_KO":null,"FCLASS_VN":null,"FCLASS_TR":null,"FCLASS_ID":null,"FCLASS_PL":null,"FCLASS_GR":null,"FCLASS_IT":null,"FCLASS_NL":null,"FCLASS_SE":null,"FCLASS_BD":null,"FCLASS_UA":null},"bbox":[-59.64668,13.062207,-59.427637,13.317676],"geometry":{"type":"Polygon","coordinates":[[[-59.493311,13.081982],[-59.521875,13.062207],[-59.611328,13.1021],[-59.642773,13.150293],[-59.64668,13.303125],[-59.591602,13.317676],[-59.487891,13.196826],[-59.427637,13.152783],[-59.493311,13.081982]]]}},{"type":"Feature","properties":{"featurecla":"Admin-0 country","scalerank":1,"LABELRANK":4,"SOVEREIGNT":"Bahrain","SOV_A3":"BHR","ADM0_DIF":0,"LEVEL":2,"TYPE":"Sovereign country","TLC":"1","ADMIN":"Bahrain","ADM0_A3":"BHR","GEOU_DIF":0,"GEOUNIT":"Bahrain","GU_A3":"BHR","SU_DIF":0,"SUBUNIT":"Bahrain","SU_A3":"BHR","BRK_DIFF":0,"NAME":"Bahrain","NAME_LONG":"Bahrain","BRK_A3":"BHR","BRK_NAME":"Bahrain","BRK_GROUP":null,"ABBREV":"Bahr.","POSTAL":"BH","FORMAL_EN":"Kingdom of Bahrain","FORMAL_FR":null,"NAME_CIAWF":"Bahrain","NOTE_ADM0":null,"NOTE_BRK":null,"NAME_SORT":"Bahrain","NAME_ALT":null,"MAPCOLOR7":1,"MAPCOLOR8":1,"MAPCOLOR9":1,"MAPCOLOR13":9,"POP_EST":1641172,"POP_RANK":12,"POP_YEAR":2019,"GDP_MD":38574,"GDP_YEAR":2019,"ECONOMY":"6. Developing region","INCOME_GRP":"2. High income: nonOECD","FIPS_10":"BA","ISO_A2":"BH","ISO_A2_EH":"BH","ISO_A3":"BHR","ISO_A3_EH":"BHR","ISO_N3":"048","ISO_N3_EH":"048","UN_A3":"048","WB_A2":"BH","WB_A3":"BHR","WOE_ID":23424753,"WOE_ID_EH":23424753,"WOE_NOTE":"Exact WOE match as country","ADM0_ISO":"BHR","ADM0_DIFF":null,"ADM0_TLC":"BHR","ADM0_A3_US":"BHR","ADM0_A3_FR":"BHR","ADM0_A3_RU":"BHR","ADM0_A3_ES":"BHR","ADM0_A3_CN":"BHR","ADM0_A3_TW":"BHR","ADM0_A3_IN":"BHR","ADM0_A3_NP":"BHR","ADM0_A3_PK":"BHR","ADM0_A3_DE":"BHR","ADM0_A3_GB":"BHR","ADM0_A3_BR":"BHR","ADM0_A3_IL":"BHR","ADM0_A3_PS":"BHR","ADM0_A3_SA":"BHR","ADM0_A3_EG":"BHR","ADM0_A3_MA":"BHR","ADM0_A3_PT":"BHR","ADM0_A3_AR":"BHR","ADM0_A3_JP":"BHR","ADM0_A3_KO":"BHR","ADM0_A3_VN":"BHR","ADM0_A3_TR":"BHR","ADM0_A3_ID":"BHR","ADM0_A3_PL":"BHR","ADM0_A3_GR":"BHR","ADM0_A3_IT":"BHR","ADM0_A3_NL":"BHR","ADM0_A3_SE":"BHR","ADM0_A3_BD":"BHR","ADM0_A3_UA":"BHR","ADM0_A3_UN":-99,"ADM0_A3_WB":-99,"CONTINENT":"Asia","REGION_UN":"Asia","SUBREGION":"Western Asia","REGION_WB":"Middle East & North Africa","NAME_LEN":7,"LONG_LEN":7,"ABBREV_LEN":5,"TINY":2,"HOMEPART":1,"MIN_ZOOM":0,"MIN_LABEL":4,"MAX_LABEL":9,"LABEL_X":50.554816,"LABEL_Y":26.055972,"NE_ID":1159320413,"WIKIDATAID":"Q398","NAME_AR":"البحرين","NAME_BN":"বাহরাইন","NAME_DE":"Bahrain","NAME_EN":"Bahrain","NAME_ES":"Baréin","NAME_FA":"بحرین","NAME_FR":"Bahreïn","NAME_EL":"Μπαχρέιν","NAME_HE":"בחריין","NAME_HI":"बहरीन","NAME_HU":"Bahrein","NAME_ID":"Bahrain","NAME_IT":"Bahrein","NAME_JA":"バーレーン","NAME_KO":"바레인","NAME_NL":"Bahrein","NAME_PL":"Bahrajn","NAME_PT":"Bahrein","NAME_RU":"Бахрейн","NAME_SV":"Bahrain","NAME_TR":"Bahreyn","NAME_UK":"Бахрейн","NAME_UR":"بحرین","NAME_VI":"Bahrain","NAME_ZH":"巴林","NAME_ZHT":"巴林","FCLASS_ISO":"Admin-0 country","TLC_DIFF":null,"FCLASS_TLC":"Admin-0 country","FCLASS_US":null,"FCLASS_FR":null,"FCLASS_RU":null,"FCLASS_ES":null,"FCLASS_CN":null,"FCLASS_TW":null,"FCLASS_IN":null,"FCLASS_NP":null,"FCLASS_PK":null,"FCLASS_DE":null,"FCLASS_GB":null,"FCLASS_BR":null,"FCLASS_IL":null,"FCLASS_PS":null,"FCLASS_SA":null,"FCLASS_EG":null,"FCLASS_MA":null,"FCLASS_PT":null,"FCLASS_AR":null,"FCLASS_JP":null,"FCLASS_KO":null,"FCLASS_VN":null,"FCLASS_TR":null,"FCLASS_ID":null,"FCLASS_PL":null,"FCLASS_GR":null,"FCLASS_IT":null,"FCLASS_NL":null,"FCLASS_SE":null,"FCLASS_BD":null,"FCLASS_UA":null},"bbox":[50.452441,25.806787,50.61748,26.246436],"geometry":{"type":"Polygon","coordinates":[[[50.607227,25.883105],[50.574902,25.806787],[50.544043,25.833496],[50.465918,25.965527],[50.489453,26.058447],[50.452441,26.19082],[50.469922,26.228955],[50.564063,26.246436],[50.585938,26.240723],[50.557813,26.198291],[50.609766,26.124463],[50.61748,26.002344],[50.607227,25.883105]]]}}]}
